{"type": "FeatureCollection", "features": [ {"type": "Feature", "properties": {"norad_id": 66918, "name": "HULIANWANG DIGUI-108", "group": "last-30-days", "lat": -40.7337289863422, "lon": 37.514552338525505, "alt_km": 880.6930226232362, "timestamp": "2025-12-20T22:39:09.408753+00:00", "meta": {"OBJECT_NAME": "HULIANWANG DIGUI-108", "OBJECT_ID": "2025-285D", "EPOCH": "2025-12-20T14:23:09.887136", "MEAN_MOTION": 14.03601834, "ECCENTRICITY": 0.00066089, "INCLINATION": 50.0047, "RA_OF_ASC_NODE": 85.2144, "ARG_OF_PERICENTER": 306.2342, "MEAN_ANOMALY": 53.7951, "EPHEMERIS_TYPE": 0, "CLASSIFICATION_TYPE": "U", "NORAD_CAT_ID": 66918, "ELEMENT_SET_NO": 999, "REV_AT_EPOCH": 201, "BSTAR": 9.5432675e-05, "MEAN_MOTION_DOT": -1e-08, "MEAN_MOTION_DDOT": 0}, "tle": {"line1": "1 66918U 25285D   25354.59941999 -.00000001  00000+0  95433-4 0  9995", "line2": "2 66918  50.0047  85.2144 0006608 306.2342  53.7951 14.03601834  2015"}}, "geometry": {"type": "Point", "coordinates": [37.514552338525505, -40.7337289863422]}}, {"type": "Feature", "properties": {"norad_id": 66919, "name": "HULIANWANG DIGUI-109", "group": "last-30-days", "lat": -36.65407617428874, "lon": 45.1476565650171, "alt_km": 879.2110177519226, "timestamp": "2025-12-20T22:39:09.408762+00:00", "meta": {"OBJECT_NAME": "HULIANWANG DIGUI-109", "OBJECT_ID": "2025-285E", "EPOCH": "2025-12-20T14:21:08.814816", "MEAN_MOTION": 14.03725631, "ECCENTRICITY": 0.00078888, "INCLINATION": 50.0071, "RA_OF_ASC_NODE": 85.2117, "ARG_OF_PERICENTER": 318.5694, "MEAN_ANOMALY": 41.4611, "EPHEMERIS_TYPE": 0, "CLASSIFICATION_TYPE": "U", "NORAD_CAT_ID": 66919, "ELEMENT_SET_NO": 999, "REV_AT_EPOCH": 201, "BSTAR": -6.099089e-06, "MEAN_MOTION_DOT": -1.61e-06, "MEAN_MOTION_DDOT": 0}, "tle": {"line1": "1 66919U 25285E   25354.59801869 -.00000161  00000+0 -60991-5 0  9997", "line2": "2 66919  50.0071  85.2117 0007888 318.5694  41.4611 14.03725631  2019"}}, "geometry": {"type": "Point", "coordinates": [45.1476565650171, -36.65407617428874]}}, {"type": "Feature", "properties": {"norad_id": 66920, "name": "HULIANWANG DIGUI-110", "group": "last-30-days", "lat": -33.984368994412115, "lon": 49.34371326726595, "alt_km": 880.7895985616979, "timestamp": "2025-12-20T22:39:09.408772+00:00", "meta": {"OBJECT_NAME": "HULIANWANG DIGUI-110", "OBJECT_ID": "2025-285F", "EPOCH": "2025-12-20T14:19:54.088320", "MEAN_MOTION": 14.03682258, "ECCENTRICITY": 0.00055813, "INCLINATION": 50.0104, "RA_OF_ASC_NODE": 85.2131, "ARG_OF_PERICENTER": 315.7953, "MEAN_ANOMALY": 44.2505, "EPHEMERIS_TYPE": 0, "CLASSIFICATION_TYPE": "U", "NORAD_CAT_ID": 66920, "ELEMENT_SET_NO": 999, "REV_AT_EPOCH": 201, "BSTAR": 9.6055425e-05, "MEAN_MOTION_DOT": 0, "MEAN_MOTION_DDOT": 0}, "tle": {"line1": "1 66920U 25285F   25354.59715380  .00000000  00000+0  96055-4 0  9990", "line2": "2 66920  50.0104  85.2131 0005581 315.7953  44.2505 14.03682258  2019"}}, "geometry": {"type": "Point", "coordinates": [49.34371326726595, -33.984368994412115]}}, {"type": "Feature", "properties": {"norad_id": 66921, "name": "HULIANWANG DIGUI-111", "group": "last-30-days", "lat": -31.114573932341642, "lon": 53.36023299149823, "alt_km": 879.9981865902, "timestamp": "2025-12-20T22:39:09.408782+00:00", "meta": {"OBJECT_NAME": "HULIANWANG DIGUI-111", "OBJECT_ID": "2025-285G", "EPOCH": "2025-12-20T14:18:36.952128", "MEAN_MOTION": 14.03631466, "ECCENTRICITY": 0.00066651, "INCLINATION": 50.0119, "RA_OF_ASC_NODE": 85.2115, "ARG_OF_PERICENTER": 319.5415, "MEAN_ANOMALY": 40.4993, "EPHEMERIS_TYPE": 0, "CLASSIFICATION_TYPE": "U", "NORAD_CAT_ID": 66921, "ELEMENT_SET_NO": 999, "REV_AT_EPOCH": 201, "BSTAR": -5.777632e-06, "MEAN_MOTION_DOT": -1.61e-06, "MEAN_MOTION_DDOT": 0}, "tle": {"line1": "1 66921U 25285G   25354.59626102 -.00000161  00000+0 -57776-5 0  9992", "line2": "2 66921  50.0119  85.2115 0006665 319.5415  40.4993 14.03631466  2011"}}, "geometry": {"type": "Point", "coordinates": [53.36023299149823, -31.114573932341642]}}, {"type": "Feature", "properties": {"norad_id": 66922, "name": "HULIANWANG DIGUI-112", "group": "last-30-days", "lat": -27.638266351291335, "lon": 57.706594235159024, "alt_km": 879.8267364143549, "timestamp": "2025-12-20T22:39:09.408793+00:00", "meta": {"OBJECT_NAME": "HULIANWANG DIGUI-112", "OBJECT_ID": "2025-285H", "EPOCH": "2025-12-20T14:17:09.601728", "MEAN_MOTION": 14.03661445, "ECCENTRICITY": 0.0006493, "INCLINATION": 50.0092, "RA_OF_ASC_NODE": 85.1994, "ARG_OF_PERICENTER": 330.2107, "MEAN_ANOMALY": 29.8427, "EPHEMERIS_TYPE": 0, "CLASSIFICATION_TYPE": "U", "NORAD_CAT_ID": 66922, "ELEMENT_SET_NO": 999, "REV_AT_EPOCH": 201, "BSTAR": 7.946639e-06, "MEAN_MOTION_DOT": -1.39e-06, "MEAN_MOTION_DDOT": 0}, "tle": {"line1": "1 66922U 25285H   25354.59525002 -.00000139  00000+0  79466-5 0  9994", "line2": "2 66922  50.0092  85.1994 0006493 330.2107  29.8427 14.03661445  2016"}}, "geometry": {"type": "Point", "coordinates": [57.706594235159024, -27.638266351291335]}}, {"type": "Feature", "properties": {"norad_id": 66923, "name": "HULIANWANG DIGUI-113", "group": "last-30-days", "lat": -23.63674261633859, "lon": 62.21834248551476, "alt_km": 880.3579929026037, "timestamp": "2025-12-20T22:39:09.408802+00:00", "meta": {"OBJECT_NAME": "HULIANWANG DIGUI-113", "OBJECT_ID": "2025-285J", "EPOCH": "2025-12-20T14:15:33.053184", "MEAN_MOTION": 14.03699456, "ECCENTRICITY": 0.00050924, "INCLINATION": 50.0091, "RA_OF_ASC_NODE": 85.1948, "ARG_OF_PERICENTER": 324.6699, "MEAN_ANOMALY": 35.3868, "EPHEMERIS_TYPE": 0, "CLASSIFICATION_TYPE": "U", "NORAD_CAT_ID": 66923, "ELEMENT_SET_NO": 999, "REV_AT_EPOCH": 201, "BSTAR": -7.61357e-06, "MEAN_MOTION_DOT": -1.63e-06, "MEAN_MOTION_DDOT": 0}, "tle": {"line1": "1 66923U 25285J   25354.59413256 -.00000163  00000+0 -76136-5 0  9991", "line2": "2 66923  50.0091  85.1948 0005092 324.6699  35.3868 14.03699456  2016"}}, "geometry": {"type": "Point", "coordinates": [62.21834248551476, -23.63674261633859]}}, {"type": "Feature", "properties": {"norad_id": 66924, "name": "CZ-8A R/B", "group": "last-30-days", "lat": -19.439426941398178, "lon": -81.53607941082612, "alt_km": 762.591566034017, "timestamp": "2025-12-20T22:39:09.408811+00:00", "meta": {"OBJECT_NAME": "CZ-8A R/B", "OBJECT_ID": "2025-285K", "EPOCH": "2025-12-20T13:19:22.228896", "MEAN_MOTION": 14.30504587, "ECCENTRICITY": 0.01192718, "INCLINATION": 50.0076, "RA_OF_ASC_NODE": 82.8865, "ARG_OF_PERICENTER": 134.2982, "MEAN_ANOMALY": 226.779, "EPHEMERIS_TYPE": 0, "CLASSIFICATION_TYPE": "U", "NORAD_CAT_ID": 66924, "ELEMENT_SET_NO": 999, "REV_AT_EPOCH": 204, "BSTAR": 4.5023023e-05, "MEAN_MOTION_DOT": -3.9e-07, "MEAN_MOTION_DDOT": 0}, "tle": {"line1": "1 66924U 25285K   25354.55511839 -.00000039  00000+0  45023-4 0  9995", "line2": "2 66924  50.0076  82.8865 0119271 134.2982 226.7790 14.30504587  2040"}}, "geometry": {"type": "Point", "coordinates": [-81.53607941082612, -19.439426941398178]}}, {"type": "Feature", "properties": {"norad_id": 66925, "name": "STARLINK-35945", "group": "last-30-days", "lat": -24.657963771575783, "lon": -150.59048387122448, "alt_km": 345.89100312181654, "timestamp": "2025-12-20T22:39:09.408821+00:00", "meta": {"OBJECT_NAME": "STARLINK-35945", "OBJECT_ID": "2025-286A", "EPOCH": "2025-12-20T14:00:03.000384", "MEAN_MOTION": 15.77031768, "ECCENTRICITY": 6.898e-05, "INCLINATION": 53.1567, "RA_OF_ASC_NODE": 11.0714, "ARG_OF_PERICENTER": 60.1002, "MEAN_ANOMALY": 264.1185, "EPHEMERIS_TYPE": 0, "CLASSIFICATION_TYPE": "U", "NORAD_CAT_ID": 66925, "ELEMENT_SET_NO": 999, "REV_AT_EPOCH": 325, "BSTAR": -0.009110238, "MEAN_MOTION_DOT": -0.01348744, "MEAN_MOTION_DDOT": 0}, "tle": {"line1": "1 66925U 25286A   25354.58336806 -.01348744  00000+0 -91102-2 0  9996", "line2": "2 66925  53.1567  11.0714 0000689  60.1002 264.1185 15.77031768  3255"}}, "geometry": {"type": "Point", "coordinates": [-150.59048387122448, -24.657963771575783]}}, {"type": "Feature", "properties": {"norad_id": 66926, "name": "STARLINK-35942", "group": "last-30-days", "lat": -27.713323581000804, "lon": -147.53654695801322, "alt_km": 346.4944572444201, "timestamp": "2025-12-20T22:39:09.408830+00:00", "meta": {"OBJECT_NAME": "STARLINK-35942", "OBJECT_ID": "2025-286B", "EPOCH": "2025-12-20T14:00:03.000384", "MEAN_MOTION": 15.76926394, "ECCENTRICITY": 7.851e-05, "INCLINATION": 53.1566, "RA_OF_ASC_NODE": 11.0621, "ARG_OF_PERICENTER": 68.0649, "MEAN_ANOMALY": 260.4131, "EPHEMERIS_TYPE": 0, "CLASSIFICATION_TYPE": "U", "NORAD_CAT_ID": 66926, "ELEMENT_SET_NO": 999, "REV_AT_EPOCH": 325, "BSTAR": -0.0092935569, "MEAN_MOTION_DOT": -0.01367194, "MEAN_MOTION_DDOT": 0}, "tle": {"line1": "1 66926U 25286B   25354.58336806 -.01367194  00000+0 -92936-2 0  9993", "line2": "2 66926  53.1566  11.0621 0000785  68.0649 260.4131 15.76926394  3250"}}, "geometry": {"type": "Point", "coordinates": [-147.53654695801322, -27.713323581000804]}}, {"type": "Feature", "properties": {"norad_id": 66927, "name": "STARLINK-35943", "group": "last-30-days", "lat": -29.169298099075192, "lon": -145.9947981784137, "alt_km": 346.71736353701726, "timestamp": "2025-12-20T22:39:09.408840+00:00", "meta": {"OBJECT_NAME": "STARLINK-35943", "OBJECT_ID": "2025-286C", "EPOCH": "2025-12-20T14:00:03.000384", "MEAN_MOTION": 15.76900244, "ECCENTRICITY": 8.712e-05, "INCLINATION": 53.1567, "RA_OF_ASC_NODE": 11.0584, "ARG_OF_PERICENTER": 72.5457, "MEAN_ANOMALY": 257.9629, "EPHEMERIS_TYPE": 0, "CLASSIFICATION_TYPE": "U", "NORAD_CAT_ID": 66927, "ELEMENT_SET_NO": 999, "REV_AT_EPOCH": 325, "BSTAR": -0.0093594094, "MEAN_MOTION_DOT": -0.01374427, "MEAN_MOTION_DDOT": 0}, "tle": {"line1": "1 66927U 25286C   25354.58336806 -.01374427  00000+0 -93594-2 0  9992", "line2": "2 66927  53.1567  11.0584 0000871  72.5457 257.9629 15.76900244  3252"}}, "geometry": {"type": "Point", "coordinates": [-145.9947981784137, -29.169298099075192]}}]}